CCSDS_OMM_VERS = 2.0
CREATION_DATE  = 
ORIGINATOR     = 

OBJECT_NAME    = STARLINK-36269
OBJECT_ID      = 2026-008AD
CENTER_NAME    = EARTH
REF_FRAME      = TEME
TIME_SYSTEM    = UTC
MEAN_ELEMENT_THEORY = SGP/SGP4

EPOCH          = 2026-02-01T06:00:02.000160
MEAN_MOTION    = 15.75069204
ECCENTRICITY   = .0001229
INCLINATION    = 43.0000
RA_OF_ASC_NODE = 54.2489
ARG_OF_PERICENTER = 266.6914
MEAN_ANOMALY   = 37.8233

EPHEMERIS_TYPE = 0
CLASSIFICATION_TYPE = U
NORAD_CAT_ID   = 67472
ELEMENT_SET_NO = 999
REV_AT_EPOCH   = 395
BSTAR          = -.47826589E-3
MEAN_MOTION_DOT = -.73401E-3
MEAN_MOTION_DDOT = 0

CCSDS_OMM_VERS = 2.0
CREATION_DATE  = 
ORIGINATOR     = 

OBJECT_NAME    = STARLINK-36408
OBJECT_ID      = 2026-008AE
CENTER_NAME    = EARTH
REF_FRAME      = TEME
TIME_SYSTEM    = UTC
MEAN_ELEMENT_THEORY = SGP/SGP4

EPOCH          = 2026-02-01T06:00:02.000160
MEAN_MOTION    = 15.75107267
ECCENTRICITY   = .00015648
INCLINATION    = 42.9999
RA_OF_ASC_NODE = 54.2394
ARG_OF_PERICENTER = 266.8369
MEAN_ANOMALY   = 41.5031

EPHEMERIS_TYPE = 0
CLASSIFICATION_TYPE = U
NORAD_CAT_ID   = 67473
ELEMENT_SET_NO = 999
REV_AT_EPOCH   = 395
BSTAR          = -.10469116E-2
MEAN_MOTION_DOT = -.158779E-2
MEAN_MOTION_DDOT = 0

CCSDS_OMM_VERS = 2.0
CREATION_DATE  = 
ORIGINATOR     = 

OBJECT_NAME    = ALSAT-3A
OBJECT_ID      = 2026-009A
CENTER_NAME    = EARTH
REF_FRAME      = TEME
TIME_SYSTEM    = UTC
MEAN_ELEMENT_THEORY = SGP/SGP4

EPOCH          = 2026-02-01T03:49:17.362272
MEAN_MOTION    = 15.23316870
ECCENTRICITY   = .00118526
INCLINATION    = 97.4699
RA_OF_ASC_NODE = 106.8554
ARG_OF_PERICENTER = 196.5186
MEAN_ANOMALY   = 163.5667

EPHEMERIS_TYPE = 0
CLASSIFICATION_TYPE = U
NORAD_CAT_ID   = 67474
ELEMENT_SET_NO = 999
REV_AT_EPOCH   = 256
BSTAR          = .27965586E-3
MEAN_MOTION_DOT = .6579E-4
MEAN_MOTION_DDOT = 0

CCSDS_OMM_VERS = 2.0
CREATION_DATE  = 
ORIGINATOR     = 

OBJECT_NAME    = CZ-2C R/B
OBJECT_ID      = 2026-009B
CENTER_NAME    = EARTH
REF_FRAME      = TEME
TIME_SYSTEM    = UTC
MEAN_ELEMENT_THEORY = SGP/SGP4

EPOCH          = 2026-02-01T04:32:20.223744
MEAN_MOTION    = 15.03062866
ECCENTRICITY   = .00998639
INCLINATION    = 97.1788
RA_OF_ASC_NODE = 105.4158
ARG_OF_PERICENTER = 163.7483
MEAN_ANOMALY   = 196.6986

EPHEMERIS_TYPE = 0
CLASSIFICATION_TYPE = U
NORAD_CAT_ID   = 67475
ELEMENT_SET_NO = 999
REV_AT_EPOCH   = 259
BSTAR          = .23990249E-3
MEAN_MOTION_DOT = .3545E-4
MEAN_MOTION_DDOT = 0

CCSDS_OMM_VERS = 2.0
CREATION_DATE  = 
ORIGINATOR     = 

OBJECT_NAME    = TIANQI-37
OBJECT_ID      = 2026-010A
CENTER_NAME    = EARTH
REF_FRAME      = TEME
TIME_SYSTEM    = UTC
MEAN_ELEMENT_THEORY = SGP/SGP4

EPOCH          = 2026-02-01T03:20:13.867296
MEAN_MOTION    = 14.13520525
ECCENTRICITY   = .00131452
INCLINATION    = 44.9836
RA_OF_ASC_NODE = 329.1799
ARG_OF_PERICENTER = 33.6728
MEAN_ANOMALY   = 326.4943

EPHEMERIS_TYPE = 0
CLASSIFICATION_TYPE = U
NORAD_CAT_ID   = 67476
ELEMENT_SET_NO = 999
REV_AT_EPOCH   = 231
BSTAR          = .29388278E-3
MEAN_MOTION_DOT = .424E-5
MEAN_MOTION_DDOT = 0

CCSDS_OMM_VERS = 2.0
CREATION_DATE  = 
ORIGINATOR     = 

OBJECT_NAME    = TIANQI-38
OBJECT_ID      = 2026-010B
CENTER_NAME    = EARTH
REF_FRAME      = TEME
TIME_SYSTEM    = UTC
MEAN_ELEMENT_THEORY = SGP/SGP4

EPOCH          = 2026-02-01T03:16:36.323328
MEAN_MOTION    = 14.13897519
ECCENTRICITY   = .00119167
INCLINATION    = 44.9798
RA_OF_ASC_NODE = 329.1602
ARG_OF_PERICENTER = 38.9186
MEAN_ANOMALY   = 321.2509

EPHEMERIS_TYPE = 0
CLASSIFICATION_TYPE = U
NORAD_CAT_ID   = 67477
ELEMENT_SET_NO = 999
REV_AT_EPOCH   = 231
BSTAR          = .34542052E-3
MEAN_MOTION_DOT = .527E-5
MEAN_MOTION_DDOT = 0

CCSDS_OMM_VERS = 2.0
CREATION_DATE  = 
ORIGINATOR     = 

OBJECT_NAME    = TIANQI-39
OBJECT_ID      = 2026-010C
CENTER_NAME    = EARTH
REF_FRAME      = TEME
TIME_SYSTEM    = UTC
MEAN_ELEMENT_THEORY = SGP/SGP4

EPOCH          = 2026-01-30T08:53:02.103072
MEAN_MOTION    = 14.13517056
ECCENTRICITY   = .0014472
INCLINATION    = 44.9851
RA_OF_ASC_NODE = 337.2202
ARG_OF_PERICENTER = 36.2785
MEAN_ANOMALY   = 323.9032

EPHEMERIS_TYPE = 0
CLASSIFICATION_TYPE = U
NORAD_CAT_ID   = 67478
ELEMENT_SET_NO = 999
REV_AT_EPOCH   = 206
BSTAR          = .25056E-3
MEAN_MOTION_DOT = .342E-5
MEAN_MOTION_DDOT = 0

CCSDS_OMM_VERS = 2.0
CREATION_DATE  = 
ORIGINATOR     = 

OBJECT_NAME    = TIANQI-40
OBJECT_ID      = 2026-010D
CENTER_NAME    = EARTH
REF_FRAME      = TEME
TIME_SYSTEM    = UTC
MEAN_ELEMENT_THEORY = SGP/SGP4

EPOCH          = 2026-01-28T21:15:30.566880
MEAN_MOTION    = 14.13986611
ECCENTRICITY   = .0013061
INCLINATION    = 44.9851
RA_OF_ASC_NODE = 343.9821
ARG_OF_PERICENTER = 21.9564
MEAN_ANOMALY   = 338.1832

EPHEMERIS_TYPE = 0
CLASSIFICATION_TYPE = U
NORAD_CAT_ID   = 67479
ELEMENT_SET_NO = 999
REV_AT_EPOCH   = 185
BSTAR          = .23704672E-3
MEAN_MOTION_DOT = .32E-5
MEAN_MOTION_DDOT = 0

CCSDS_OMM_VERS = 2.0
CREATION_DATE  = 
ORIGINATOR     = 

OBJECT_NAME    = SZ-20 MODULE
OBJECT_ID      = 2025-082C
CENTER_NAME    = EARTH
REF_FRAME      = TEME
TIME_SYSTEM    = UTC
MEAN_ELEMENT_THEORY = SGP/SGP4

EPOCH          = 2026-02-01T06:37:16.682592
MEAN_MOTION    = 15.62130216
ECCENTRICITY   = .00062287
INCLINATION    = 41.4791
RA_OF_ASC_NODE = 69.3285
ARG_OF_PERICENTER = 65.9564
MEAN_ANOMALY   = 294.1927

EPHEMERIS_TYPE = 0
CLASSIFICATION_TYPE = U
NORAD_CAT_ID   = 67481
ELEMENT_SET_NO = 999
REV_AT_EPOCH   = 27192
BSTAR          = .22302185E-3
MEAN_MOTION_DOT = .19859E-3
MEAN_MOTION_DDOT = 0

CCSDS_OMM_VERS = 2.0
CREATION_DATE  = 
ORIGINATOR     = 

OBJECT_NAME    = ION SCV-021
OBJECT_ID      = 2025-276DT
CENTER_NAME    = EARTH
REF_FRAME      = TEME
TIME_SYSTEM    = UTC
MEAN_ELEMENT_THEORY = SGP/SGP4

EPOCH          = 2026-02-01T04:21:31.098816
MEAN_MOTION    = 14.97373888
ECCENTRICITY   = .00112231
INCLINATION    = 97.5407
RA_OF_ASC_NODE = 107.5651
ARG_OF_PERICENTER = 218.6312
MEAN_ANOMALY   = 141.4108

EPHEMERIS_TYPE = 0
CLASSIFICATION_TYPE = U
NORAD_CAT_ID   = 67483
ELEMENT_SET_NO = 999
REV_AT_EPOCH   = 225
BSTAR          = .43240723E-4
MEAN_MOTION_DOT = .447E-5
MEAN_MOTION_DDOT = 0

CCSDS_OMM_VERS = 2.0
CREATION_DATE  = 
ORIGINATOR     = 

OBJECT_NAME    = STARLINK-36551
OBJECT_ID      = 2026-012A
CENTER_NAME    = EARTH
REF_FRAME      = TEME
TIME_SYSTEM    = UTC
MEAN_ELEMENT_THEORY = SGP/SGP4

EPOCH          = 2026-02-01T06:00:02.000160
MEAN_MOTION    = 15.86200058
ECCENTRICITY   = .00014065
INCLINATION    = 42.9966
RA_OF_ASC_NODE = 164.8759
ARG_OF_PERICENTER = 274.8820
MEAN_ANOMALY   = 149.6511

EPHEMERIS_TYPE = 0
CLASSIFICATION_TYPE = U
NORAD_CAT_ID   = 67493
ELEMENT_SET_NO = 999
REV_AT_EPOCH   = 321
BSTAR          = -.7582076E-2
MEAN_MOTION_DOT = -.1694853E-1
MEAN_MOTION_DDOT = 0

CCSDS_OMM_VERS = 2.0
CREATION_DATE  = 
ORIGINATOR     = 

OBJECT_NAME    = STARLINK-36396
OBJECT_ID      = 2026-012B
CENTER_NAME    = EARTH
REF_FRAME      = TEME
TIME_SYSTEM    = UTC
MEAN_ELEMENT_THEORY = SGP/SGP4

EPOCH          = 2026-02-01T06:00:02.000160
MEAN_MOTION    = 15.84169420
ECCENTRICITY   = .00015608
INCLINATION    = 42.9963
RA_OF_ASC_NODE = 164.8834
ARG_OF_PERICENTER = 280.1420
MEAN_ANOMALY   = 141.4238

EPHEMERIS_TYPE = 0
CLASSIFICATION_TYPE = U
NORAD_CAT_ID   = 67494
ELEMENT_SET_NO = 999
REV_AT_EPOCH   = 321
BSTAR          = -.11666462E-1
MEAN_MOTION_DOT = -.235885E-1
MEAN_MOTION_DDOT = 0

