STARLINK-36269          
1 67472U 26008AD  26032.25002315 -.00073401  00000+0 -47827-3 0  9990
2 67472  43.0000  54.2489 0001229 266.6914  37.8233 15.75069204  3957
STARLINK-36408          
1 67473U 26008AE  26032.25002315 -.00158779  00000+0 -10469-2 0  9994
2 67473  42.9999  54.2394 0001564 266.8369  41.5031 15.75107267  3956
ALSAT-3A                
1 67474U 26009A   26032.15922873  .00006579  00000+0  27966-3 0  9994
2 67474  97.4699 106.8554 0011852 196.5186 163.5667 15.23316870  2569
CZ-2C R/B               
1 67475U 26009B   26032.18912296  .00003545  00000+0  23990-3 0  9999
2 67475  97.1788 105.4158 0099863 163.7483 196.6986 15.03062866  2590
TIANQI-37               
1 67476U 26010A   26032.13904939  .00000424  00000+0  29388-3 0  9992
2 67476  44.9836 329.1799 0013145  33.6728 326.4943 14.13520525  2314
TIANQI-38               
1 67477U 26010B   26032.13653152  .00000527  00000+0  34542-3 0  9993
2 67477  44.9798 329.1602 0011916  38.9186 321.2509 14.13897519  2316
TIANQI-39               
1 67478U 26010C   26030.37016323  .00000342  00000+0  25056-3 0  9996
2 67478  44.9851 337.2202 0014472  36.2785 323.9032 14.13517056  2066
TIANQI-40               
1 67479U 26010D   26028.88577045  .00000320  00000+0  23705-3 0  9998
2 67479  44.9851 343.9821 0013061  21.9564 338.1832 14.13986611  1856
SZ-20 MODULE            
1 67481U 25082C   26032.27588753  .00019859  00000+0  22302-3 0  9994
2 67481  41.4791  69.3285 0006228  65.9564 294.1927 15.62130216271922
ION SCV-021             
1 67483U 25276DT  26032.18160994  .00000447  00000+0  43241-4 0  9993
2 67483  97.5407 107.5651 0011223 218.6312 141.4108 14.97373888  2255
STARLINK-36551          
1 67493U 26012A   26032.25002315 -.01694853  00000+0 -75821-2 0  9993
2 67493  42.9966 164.8759 0001406 274.8820 149.6511 15.86200058  3217
STARLINK-36396          
1 67494U 26012B   26032.25002315 -.02358850  00000+0 -11666-1 0  9995
2 67494  42.9963 164.8834 0001560 280.1420 141.4238 15.84169420  3217
